{"type": "FeatureCollection", "features": [ {"type": "Feature", "properties": {"norad_id": 66432, "name": "STARLINK-35446", "group": "last-30-days", "lat": 33.31239762438956, "lon": -169.63338967396254, "alt_km": 439.5410552815656, "timestamp": "2025-12-11T10:53:14.618869+00:00", "meta": {"OBJECT_NAME": "STARLINK-35446", "OBJECT_ID": "2025-259L", "EPOCH": "2025-12-11T00:00:02.998944", "MEAN_MOTION": 15.40743077, "ECCENTRICITY": 0.0001346, "INCLINATION": 43.0003, "RA_OF_ASC_NODE": 57.83, "ARG_OF_PERICENTER": 252.2205, "MEAN_ANOMALY": 235.174, "EPHEMERIS_TYPE": 0, "CLASSIFICATION_TYPE": "U", "NORAD_CAT_ID": 66432, "ELEMENT_SET_NO": 999, "REV_AT_EPOCH": 600, "BSTAR": -0.0030953, "MEAN_MOTION_DOT": -0.00127643, "MEAN_MOTION_DDOT": 0}, "tle": {"line1": "1 66432U 25259L   25345.00003471 -.00127643  00000+0 -30953-2 0  9994", "line2": "2 66432  43.0003  57.8300 0001346 252.2205 235.1740 15.40743077  6004"}}, "geometry": {"type": "Point", "coordinates": [-169.63338967396254, 33.31239762438956]}}, {"type": "Feature", "properties": {"norad_id": 66433, "name": "STARLINK-35457", "group": "last-30-days", "lat": 26.68240717044345, "lon": -157.45010941840243, "alt_km": 440.1079337010815, "timestamp": "2025-12-11T10:53:14.618880+00:00", "meta": {"OBJECT_NAME": "STARLINK-35457", "OBJECT_ID": "2025-259M", "EPOCH": "2025-12-11T04:00:01.998720", "MEAN_MOTION": 15.40592714, "ECCENTRICITY": 0.0001306, "INCLINATION": 42.9998, "RA_OF_ASC_NODE": 56.841, "ARG_OF_PERICENTER": 240.9781, "MEAN_ANOMALY": 104.3711, "EPHEMERIS_TYPE": 0, "CLASSIFICATION_TYPE": "U", "NORAD_CAT_ID": 66433, "ELEMENT_SET_NO": 999, "REV_AT_EPOCH": 602, "BSTAR": 0.0033854, "MEAN_MOTION_DOT": 0.00143287, "MEAN_MOTION_DDOT": 0}, "tle": {"line1": "1 66433U 25259M   25345.16668980  .00143287  00000+0  33854-2 0  9997", "line2": "2 66433  42.9998  56.8410 0001306 240.9781 104.3711 15.40592714  6023"}}, "geometry": {"type": "Point", "coordinates": [-157.45010941840243, 26.68240717044345]}}, {"type": "Feature", "properties": {"norad_id": 66434, "name": "STARLINK-35389", "group": "last-30-days", "lat": 19.15056020661115, "lon": -146.72339843498165, "alt_km": 441.4008887174705, "timestamp": "2025-12-11T10:53:14.618892+00:00", "meta": {"OBJECT_NAME": "STARLINK-35389", "OBJECT_ID": "2025-259N", "EPOCH": "2025-12-11T04:00:01.998720", "MEAN_MOTION": 15.40610831, "ECCENTRICITY": 0.0001387, "INCLINATION": 42.9999, "RA_OF_ASC_NODE": 56.8106, "ARG_OF_PERICENTER": 256.3577, "MEAN_ANOMALY": 101.4118, "EPHEMERIS_TYPE": 0, "CLASSIFICATION_TYPE": "U", "NORAD_CAT_ID": 66434, "ELEMENT_SET_NO": 999, "REV_AT_EPOCH": 602, "BSTAR": 0.0022397, "MEAN_MOTION_DOT": 0.00094138, "MEAN_MOTION_DDOT": 0}, "tle": {"line1": "1 66434U 25259N   25345.16668980  .00094138  00000+0  22397-2 0  9998", "line2": "2 66434  42.9999  56.8106 0001387 256.3577 101.4118 15.40610831  6020"}}, "geometry": {"type": "Point", "coordinates": [-146.72339843498165, 19.15056020661115]}}, {"type": "Feature", "properties": {"norad_id": 66435, "name": "STARLINK-35502", "group": "last-30-days", "lat": 11.035792141948871, "lon": -136.95363484158042, "alt_km": 442.41824079849994, "timestamp": "2025-12-11T10:53:14.618903+00:00", "meta": {"OBJECT_NAME": "STARLINK-35502", "OBJECT_ID": "2025-259P", "EPOCH": "2025-12-11T04:00:01.998720", "MEAN_MOTION": 15.40614764, "ECCENTRICITY": 9.31e-05, "INCLINATION": 42.9998, "RA_OF_ASC_NODE": 56.7811, "ARG_OF_PERICENTER": 256.3376, "MEAN_ANOMALY": 113.873, "EPHEMERIS_TYPE": 0, "CLASSIFICATION_TYPE": "U", "NORAD_CAT_ID": 66435, "ELEMENT_SET_NO": 999, "REV_AT_EPOCH": 602, "BSTAR": 0.0021408, "MEAN_MOTION_DOT": 0.00089926, "MEAN_MOTION_DDOT": 0}, "tle": {"line1": "1 66435U 25259P   25345.16668980  .00089926  00000+0  21408-2 0  9990", "line2": "2 66435  42.9998  56.7811 0000931 256.3376 113.8730 15.40614764  6029"}}, "geometry": {"type": "Point", "coordinates": [-136.95363484158042, 11.035792141948871]}}, {"type": "Feature", "properties": {"norad_id": 66436, "name": "STARLINK-35501", "group": "last-30-days", "lat": -5.834390486136295, "lon": -118.63932510769625, "alt_km": 444.1398722636686, "timestamp": "2025-12-11T10:53:14.618913+00:00", "meta": {"OBJECT_NAME": "STARLINK-35501", "OBJECT_ID": "2025-259Q", "EPOCH": "2025-12-11T04:00:01.998720", "MEAN_MOTION": 15.40608255, "ECCENTRICITY": 0.0001293, "INCLINATION": 42.9998, "RA_OF_ASC_NODE": 56.719, "ARG_OF_PERICENTER": 239.6837, "MEAN_ANOMALY": 155.4123, "EPHEMERIS_TYPE": 0, "CLASSIFICATION_TYPE": "U", "NORAD_CAT_ID": 66436, "ELEMENT_SET_NO": 999, "REV_AT_EPOCH": 602, "BSTAR": 0.002132, "MEAN_MOTION_DOT": 0.00089534, "MEAN_MOTION_DDOT": 0}, "tle": {"line1": "1 66436U 25259Q   25345.16668980  .00089534  00000+0  21320-2 0  9999", "line2": "2 66436  42.9998  56.7190 0001293 239.6837 155.4123 15.40608255  6024"}}, "geometry": {"type": "Point", "coordinates": [-118.63932510769625, -5.834390486136295]}}, {"type": "Feature", "properties": {"norad_id": 66437, "name": "STARLINK-35474", "group": "last-30-days", "lat": -14.156404391198496, "lon": -109.2605887565432, "alt_km": 444.81913465757134, "timestamp": "2025-12-11T10:53:14.618924+00:00", "meta": {"OBJECT_NAME": "STARLINK-35474", "OBJECT_ID": "2025-259R", "EPOCH": "2025-12-11T04:00:01.998720", "MEAN_MOTION": 15.40600483, "ECCENTRICITY": 0.0001599, "INCLINATION": 42.9998, "RA_OF_ASC_NODE": 56.6887, "ARG_OF_PERICENTER": 249.2049, "MEAN_ANOMALY": 158.3375, "EPHEMERIS_TYPE": 0, "CLASSIFICATION_TYPE": "U", "NORAD_CAT_ID": 66437, "ELEMENT_SET_NO": 999, "REV_AT_EPOCH": 602, "BSTAR": 0.0033669, "MEAN_MOTION_DOT": 0.00142527, "MEAN_MOTION_DDOT": 0}, "tle": {"line1": "1 66437U 25259R   25345.16668980  .00142527  00000+0  33669-2 0  9991", "line2": "2 66437  42.9998  56.6887 0001599 249.2049 158.3375 15.40600483  6024"}}, "geometry": {"type": "Point", "coordinates": [-109.2605887565432, -14.156404391198496]}}, {"type": "Feature", "properties": {"norad_id": 66438, "name": "STARLINK-34681", "group": "last-30-days", "lat": -22.06617769157302, "lon": -99.20889599761684, "alt_km": 445.61108729474563, "timestamp": "2025-12-11T10:53:14.618935+00:00", "meta": {"OBJECT_NAME": "STARLINK-34681", "OBJECT_ID": "2025-259S", "EPOCH": "2025-12-11T04:00:01.998720", "MEAN_MOTION": 15.40622337, "ECCENTRICITY": 0.0001136, "INCLINATION": 43, "RA_OF_ASC_NODE": 56.6587, "ARG_OF_PERICENTER": 244.7896, "MEAN_ANOMALY": 175.163, "EPHEMERIS_TYPE": 0, "CLASSIFICATION_TYPE": "U", "NORAD_CAT_ID": 66438, "ELEMENT_SET_NO": 999, "REV_AT_EPOCH": 592, "BSTAR": 0.0020998, "MEAN_MOTION_DOT": 0.00088203, "MEAN_MOTION_DDOT": 0}, "tle": {"line1": "1 66438U 25259S   25345.16668980  .00088203  00000+0  20998-2 0  9993", "line2": "2 66438  43.0000  56.6587 0001136 244.7896 175.1630 15.40622337  5926"}}, "geometry": {"type": "Point", "coordinates": [-99.20889599761684, -22.06617769157302]}}, {"type": "Feature", "properties": {"norad_id": 66439, "name": "STARLINK-35327", "group": "last-30-days", "lat": 2.634840261194104, "lon": -127.73313351068053, "alt_km": 443.2283970059716, "timestamp": "2025-12-11T10:53:14.618946+00:00", "meta": {"OBJECT_NAME": "STARLINK-35327", "OBJECT_ID": "2025-259T", "EPOCH": "2025-12-11T04:00:01.998720", "MEAN_MOTION": 15.40618529, "ECCENTRICITY": 0.0001117, "INCLINATION": 42.9998, "RA_OF_ASC_NODE": 56.7514, "ARG_OF_PERICENTER": 237.5293, "MEAN_ANOMALY": 145.116, "EPHEMERIS_TYPE": 0, "CLASSIFICATION_TYPE": "U", "NORAD_CAT_ID": 66439, "ELEMENT_SET_NO": 999, "REV_AT_EPOCH": 602, "BSTAR": 0.0020062, "MEAN_MOTION_DOT": 0.00084203, "MEAN_MOTION_DDOT": 0}, "tle": {"line1": "1 66439U 25259T   25345.16668980  .00084203  00000+0  20062-2 0  9992", "line2": "2 66439  42.9998  56.7514 0001117 237.5293 145.1160 15.40618529  6027"}}, "geometry": {"type": "Point", "coordinates": [-127.73313351068053, 2.634840261194104]}}, {"type": "Feature", "properties": {"norad_id": 66440, "name": "STARLINK-35405", "group": "last-30-days", "lat": -29.3105502714471, "lon": -87.97683712444694, "alt_km": 445.85600694582445, "timestamp": "2025-12-11T10:53:14.618957+00:00", "meta": {"OBJECT_NAME": "STARLINK-35405", "OBJECT_ID": "2025-259U", "EPOCH": "2025-12-11T04:00:01.998720", "MEAN_MOTION": 15.40600961, "ECCENTRICITY": 0.0001521, "INCLINATION": 43.0002, "RA_OF_ASC_NODE": 56.6301, "ARG_OF_PERICENTER": 240.2554, "MEAN_ANOMALY": 192.1842, "EPHEMERIS_TYPE": 0, "CLASSIFICATION_TYPE": "U", "NORAD_CAT_ID": 66440, "ELEMENT_SET_NO": 999, "REV_AT_EPOCH": 602, "BSTAR": 0.0021739, "MEAN_MOTION_DOT": 0.00091296, "MEAN_MOTION_DDOT": 0}, "tle": {"line1": "1 66440U 25259U   25345.16668980  .00091296  00000+0  21739-2 0  9996", "line2": "2 66440  43.0002  56.6301 0001521 240.2554 192.1842 15.40600961  6020"}}, "geometry": {"type": "Point", "coordinates": [-87.97683712444694, -29.3105502714471]}}, {"type": "Feature", "properties": {"norad_id": 66441, "name": "STARLINK-35426", "group": "last-30-days", "lat": -35.4483663012961, "lon": -75.23829106280768, "alt_km": 446.2952890095894, "timestamp": "2025-12-11T10:53:14.618968+00:00", "meta": {"OBJECT_NAME": "STARLINK-35426", "OBJECT_ID": "2025-259V", "EPOCH": "2025-12-11T04:00:01.998720", "MEAN_MOTION": 15.40615987, "ECCENTRICITY": 0.0001312, "INCLINATION": 43.0004, "RA_OF_ASC_NODE": 56.5986, "ARG_OF_PERICENTER": 260.4172, "MEAN_ANOMALY": 184.4056, "EPHEMERIS_TYPE": 0, "CLASSIFICATION_TYPE": "U", "NORAD_CAT_ID": 66441, "ELEMENT_SET_NO": 999, "REV_AT_EPOCH": 602, "BSTAR": 0.0030466, "MEAN_MOTION_DOT": 0.00128772, "MEAN_MOTION_DDOT": 0}, "tle": {"line1": "1 66441U 25259V   25345.16668980  .00128772  00000+0  30466-2 0  9994", "line2": "2 66441  43.0004  56.5986 0001312 260.4172 184.4056 15.40615987  6024"}}, "geometry": {"type": "Point", "coordinates": [-75.23829106280768, -35.4483663012961]}}]}